STARLINK-1159
1 45057U 20006P   26061.25002314  .00114915  00000+0  61494-3 0  9998
2 45057  53.0450 272.1411 0004686 121.7341 335.9972 15.79502963  6024
STARLINK-1657
1 46354U 20062AF  26061.16668981  .00202927  00000+0  10715-2 0  9999
2 46354  53.0474   6.9631 0002480 242.0331 169.6973 15.79524402  5950
